GLOBALSTAR M068 [-]     
1 32266U 07048D   23292.88114779 -.00000065  00000+0  21638-3 0  9995
2 32266  51.9908 350.3918 0000596 211.5631 321.2026 12.62768376740950
GLOBALSTAR M079 [+]     
1 37188U 10054A   23292.87870483 -.00000068  00000+0  19875-3 0  9997
2 37188  52.0029 185.4878 0000999  69.3097  53.8407 12.62269209599884
GLOBALSTAR M074 [+]     
1 37189U 10054B   23293.15173407 -.00000069  00000+0  19248-3 0  9997
2 37189  52.0005 184.0728 0000821  77.1420  87.6839 12.62271101600598
GLOBALSTAR M076 [+]     
1 37190U 10054C   23293.09507389 -.00000065  00000+0  21446-3 0  9991
2 37190  52.0018 184.3616 0001368  88.3255  58.6156 12.62262477600596
GLOBALSTAR M077 [+]     
1 37191U 10054D   23293.08839976 -.00000094  00000+0  54971-4 0  9993
2 37191  52.0051 141.0646 0000877  90.4527  85.0556 12.62267815601340
GLOBALSTAR M075 [+]     
1 37192U 10054E   23292.84252410 -.00000054  00000+0  27870-3 0  9992
2 37192  51.9941 227.7249 0000802  58.0391 319.8037 12.62254656599432
GLOBALSTAR M073 [+]     
1 37193U 10054F   23292.84154874 -.00000091  00000+0  69466-4 0  9997
2 37193  52.0038 141.0837 0000929  85.1366 289.1953 12.62268876601266
GLOBALSTAR M083 [+]     
1 37739U 11033A   23292.88749646 -.00000097  00000+0  36235-4 0  9996
2 37739  51.9849  90.4990 0000644  81.7316  82.9821 12.62270525570282
GLOBALSTAR M088 [+]     
1 37740U 11033B   23293.14559742 -.00000080  00000+0  13298-3 0  9999
2 37740  51.9760 355.7190 0000468  67.9838 309.2911 12.62266388566152
GLOBALSTAR M091 [+]     
1 37741U 11033C   23292.79676659 -.00000088  00000+0  86059-4 0  9991
2 37741  52.0007 319.2538 0000522  45.1406 125.4903 12.62267298566600
GLOBALSTAR M085 [+]     
1 37742U 11033D   23292.70426590 -.00000074  00000+0  16407-3 0  9994
2 37742  51.9861 271.1086 0000610  39.8087 130.9710 12.62263976567106
GLOBALSTAR M081 [+]     
1 37743U 11033E   23292.73094494 -.00000082  00000+0  12327-3 0  9998
2 37743  51.9949 273.4402 0000775  50.4139 121.5581 12.62265694567257
GLOBALSTAR M089 [+]     
1 37744U 11033F   23292.81606369 -.00000067  00000+0  20729-3 0  9996
2 37744  51.9924 227.5224 0000820  81.9728 296.7524 12.62268443568110
GLOBALSTAR M084 [+]     
1 38040U 11080A   23292.74919760 -.00000107  00000+0 -19122-4 0  9994
2 38040  51.9992  94.6914 0001023 109.6125 264.3029 12.62267019546080
GLOBALSTAR M080 [+]     
1 38041U 11080B   23292.72260270 -.00000107  00000+0 -19534-4 0  9995
2 38041  52.0043  96.1657 0001246 105.8529 267.3935 12.62265679546207
GLOBALSTAR M082 [+]     
1 38042U 11080C   23293.08720098 -.00000101  00000+0  16917-4 0  9990
2 38042  52.0092  50.4363 0000206  44.2539 127.5749 12.62271627547123
GLOBALSTAR M092 [+]     
1 38043U 11080D   23292.63470906 -.00000083  00000+0  11521-3 0  9995
2 38043  52.0063 142.1600 0000926 107.4978 287.5403 12.62273374545351
GLOBALSTAR M090 [+]     
1 38044U 11080E   23293.03418125 -.00000098  00000+0  30638-4 0  9993
2 38044  51.9903  45.1864 0000531  82.9032  88.7261 12.62278228547108
GLOBALSTAR M086 [+]     
1 38045U 11080F   23293.51596109 -.00000107  00000+0 -18832-4 0  9990
2 38045  51.9918  44.2245 0001481  76.1851   5.0687 12.62263310547174
GLOBALSTAR M097 [+]     
1 39072U 13005A   23293.44553076 -.00000071  00000+0  18043-3 0  9990
2 39072  52.0056 318.3757 0000542  46.3907 313.7005 12.62271536494398
GLOBALSTAR M093 [+]     
1 39073U 13005B   23292.78552858 -.00000088  00000+0  89135-4 0  9993
2 39073  51.9818 314.6582 0000736  35.9434 324.1482 12.62267643494188
GLOBALSTAR M094 [+]     
1 39074U 13005C   23293.18150237 -.00000070  00000+0  18868-3 0  9999
2 39074  51.9952 227.2261 0000853  56.4373 303.6575 12.62268648495868
GLOBALSTAR M096 [+]     
1 39075U 13005D   23293.19464078 -.00000077  00000+0  14749-3 0  9993
2 39075  52.0065 275.2279 0000704  43.1808 316.9114 12.62265018495111
GLOBALSTAR M078 [+]     
1 39076U 13005E   23293.48477949 -.00000088  00000+0  87829-4 0  9999
2 39076  51.9899 359.6767 0000496 275.8505  84.2305 12.62260377493635
GLOBALSTAR M095 [+]     
1 39077U 13005F   23293.19472700 -.00000082  00000+0  12123-3 0  9996
2 39077  51.9827 358.0599 0000374 354.2574   5.8288 12.62269630493603
GLOBALSTAR M087 [+]     
1 52888U 22064A   23292.82712472 -.00000073  00000+0  10562-3 0  9993
2 52888  51.9770 329.9812 0009904 111.2323 248.9636 13.37555538 65229
